{"@context": {"@vocab": "http://schema.org/", "@base": "http://data.org/", "name": "name", "lat": "lat", "long": "long", "ville": "ville"}, "features": [[{"fields": {"commune": "LILLE", "code_postal": "59000", "geo_point_2d": [50.6465113784, 3.08395241534], "@type": "hopital", "ville": "Lille", "lat": 50.6465113784, "long": 3.08395241534}, "type": "Feature"}, {"fields": {"commune": "ROUBAIX", "code_postal": "59100", "geo_point_2d": [50.6826161374, 3.19776884998], "@type": "hopital", "ville": "Lille", "lat": 50.6826161374, "long": 3.19776884998}, "type": "Feature"}, {"fields": {"commune": "RONCQ", "code_postal": "59223", "geo_point_2d": [50.7327642037, 3.115016521], "@type": "hopital", "ville": "Lille", "lat": 50.7327642037, "long": 3.115016521}, "type": "Feature"}, {"fields": {"commune": "ARMENTIERES", "code_postal": "59280", "geo_point_2d": [50.6846779019, 2.86783660669], "@type": "hopital", "ville": "Lille", "lat": 50.6846779019, "long": 2.86783660669}, "type": "Feature"}, {"fields": {"commune": "TOURCOING", "code_postal": "59200", "geo_point_2d": [50.7246508856, 3.14800433887], "@type": "hopital", "ville": "Lille", "lat": 50.7246508856, "long": 3.14800433887}, "type": "Feature"}, {"fields": {"commune": "LILLE", "code_postal": "59000", "geo_point_2d": [50.6202380916, 3.07717927762], "@type": "hopital", "ville": "Lille", "lat": 50.6202380916, "long": 3.07717927762}, "type": "Feature"}, {"fields": {"commune": "TOURCOING", "code_postal": "59200", "geo_point_2d": [50.7446443074, 3.18029017856], "@type": "hopital", "ville": "Lille", "lat": 50.7446443074, "long": 3.18029017856}, "type": "Feature"}, {"fields": {"commune": "LILLE", "code_postal": "59000", "geo_point_2d": [50.6339108151, 3.03153623994], "@type": "hopital", "ville": "Lille", "lat": 50.6339108151, "long": 3.03153623994}, "type": "Feature"}, {"fields": {"commune": "LOOS", "code_postal": "59120", "geo_point_2d": [50.6105672954, 3.00789073236], "@type": "hopital", "ville": "Lille", "lat": 50.6105672954, "long": 3.00789073236}, "type": "Feature"}, {"fields": {"commune": "WATTRELOS", "code_postal": "59150", "geo_point_2d": [50.7007490358, 3.22201522281], "@type": "hopital", "ville": "Lille", "lat": 50.7007490358, "long": 3.22201522281}, "type": "Feature"}, {"fields": {"commune": "TOURCOING", "code_postal": "59200", "geo_point_2d": [50.7164587684, 3.15662245507], "@type": "hopital", "ville": "Lille", "lat": 50.7164587684, "long": 3.15662245507}, "type": "Feature"}, {"fields": {"commune": "VILLENEUVE D'ASCQ", "code_postal": "59650", "geo_point_2d": [50.6530104252, 3.15218579198], "@type": "hopital", "ville": "Lille", "lat": 50.6530104252, "long": 3.15218579198}, "type": "Feature"}, {"fields": {"commune": "(LOMME) LILLE", "code_postal": "59160", "geo_point_2d": [50.6513947118, 2.9731517883], "@type": "hopital", "ville": "Lille", "lat": 50.6513947118, "long": 2.9731517883}, "type": "Feature"}, {"fields": {"commune": "ROUBAIX", "code_postal": "59100", "geo_point_2d": [50.679169334, 3.17382832463], "@type": "hopital", "ville": "Lille", "lat": 50.679169334, "long": 3.17382832463}, "type": "Feature"}, {"fields": {"commune": "HAUBOURDIN", "code_postal": "59320", "geo_point_2d": [50.6130128507, 2.98673462341], "@type": "hopital", "ville": "Lille", "lat": 50.6130128507, "long": 2.98673462341}, "type": "Feature"}, {"fields": {"commune": "ROUBAIX", "code_postal": "59100", "geo_point_2d": [50.6859128549, 3.17828878634], "@type": "hopital", "ville": "Lille", "lat": 50.6859128549, "long": 3.17828878634}, "type": "Feature"}, {"fields": {"commune": "(LOMME) LILLE", "code_postal": "59160", "geo_point_2d": [50.653891345, 2.9923404297], "@type": "hopital", "ville": "Lille", "lat": 50.653891345, "long": 2.9923404297}, "type": "Feature"}, {"fields": {"commune": "LILLE", "code_postal": "59000", "geo_point_2d": [50.6491473003, 3.08549912212], "@type": "hopital", "ville": "Lille", "lat": 50.6491473003, "long": 3.08549912212}, "type": "Feature"}, {"fields": {"commune": "LILLE", "code_postal": "59000", "geo_point_2d": [50.6086696715, 3.03596840781], "@type": "hopital", "ville": "Lille", "lat": 50.6086696715, "long": 3.03596840781}, "type": "Feature"}, {"fields": {"commune": "SECLIN", "code_postal": "59113", "geo_point_2d": [50.5466414558, 3.01781005107], "@type": "hopital", "ville": "Lille", "lat": 50.5466414558, "long": 3.01781005107}, "type": "Feature"}, {"fields": {"commune": "LESQUIN", "code_postal": "59810", "geo_point_2d": [50.5888971553, 3.08948682714], "@type": "hopital", "ville": "Lille", "lat": 50.5888971553, "long": 3.08948682714}, "type": "Feature"}, {"fields": {"commune": "MARCQ-EN-BAROEUL", "code_postal": "59700", "geo_point_2d": [50.666496025, 3.10155008906], "@type": "hopital", "ville": "Lille", "lat": 50.666496025, "long": 3.10155008906}, "type": "Feature"}]]}